AQUA                    
1 27424U 02022A   26162.71457288  .00000679  00000+0  14483-3 0  9998
2 27424  98.4275 131.8881 0001323  53.1553 358.2903 14.62149926282474
ARIRANG-2 (KOMPSAT-2)   
1 29268U 06031A   26162.62836795  .00000103  00000+0  27710-4 0  9994
2 29268  97.8311 347.3444 0015937  90.6429   0.9235 14.64656121 60665
ARIRANG-3 (KOMPSAT-3)   
1 38338U 12025B   26162.69511556  .00000362  00000+0  81032-4 0  9998
2 38338  98.1175 120.2499 0006463 123.2999 236.8822 14.62201378750545
ARIRANG-5 (KOMPSAT-5)   
1 39227U 13042A   26162.71231168  .00001486  00000+0  11054-3 0  9991
2 39227  97.6217 349.4905 0004830 135.0499 225.1119 15.04477821703030
ALOS-2                  
1 39766U 14029A   26162.72854390  .00001205  00000+0  16818-3 0  9996
2 39766  97.9210 259.9704 0001638  89.5715 270.5684 14.79472518650775
ASNARO                  
1 40298U 14070A   26162.69309765  .00009296  00000+0  44251-3 0  9991
2 40298  97.3451 238.9570 0004980 183.6345 176.4855 15.19355353643176
ALSAT-1B                
1 41785U 16059C   26162.66717792  .00000361  00000+0  64595-4 0  9990
2 41785  97.7755 171.6691 0007805 240.5989 119.4440 14.72270759519760
ARKTIKA-M 1             
1 47719U 21016A   26160.51571443 -.00000149  00000+0  00000+0 0  9996
2 47719  63.2417  58.7595 7285674 269.8905  14.6803  2.00625436 38630
ARKTIKA-M 2             
1 58584U 23198A   26160.78386103  .00000212  00000+0  00000+0 0  9997
2 58584  63.2205 155.1874 6900401 267.4353  18.7899  2.00606537 18179
ALOS-4 (DAICHI-4)       
1 60182U 24123A   26162.68024909  .00001289  00000+0  17939-3 0  9995
2 60182  97.9243 259.9312 0001632  96.8219 263.3178 14.79476402105067
